STARLINK-36546          
1 67459U 26008Q   26040.50002314 -.00485579  00000+0 -87391-2 0  9993
2 67459  42.9998   5.3814 0001048 271.2051 316.3320 15.50761126  5261
STARLINK-36523          
1 67460U 26008R   26040.50002314 -.00056373  00000+0 -96024-3 0  9995
2 67460  43.0001   5.3458 0001878 272.8496 328.9542 15.50629239  5280
STARLINK-36522          
1 67461U 26008S   26040.50002314 -.00117391  00000+0 -20226-2 0  9994
2 67461  43.0005   5.6510 0001625 274.7710 203.5736 15.50615494  5266
STARLINK-36504          
1 67462U 26008T   26040.50002314 -.00062523  00000+0 -10678-2 0  9991
2 67462  43.0002   5.1566 0001119 274.9285  44.1613 15.50595455  5286
STARLINK-36505          
1 67463U 26008U   26040.50002314 -.00077542  00000+0 -13279-2 0  9999
2 67463  43.0003   5.2538 0001494 267.3305  12.0845 15.50603642  5260
STARLINK-36421          
1 67464U 26008V   26040.50002314 -.00523566  00000+0 -94186-2 0  9998
2 67464  43.0003   5.6427 0001713 273.5086 208.1069 15.50904933  5264
STARLINK-36437          
1 67465U 26008W   26040.50002314  .00007266  00000+0  12954-3 0  9995
2 67465  43.0004   5.2252 0001159 286.0650   4.7247 15.50581395  5269
STARLINK-36520          
1 67466U 26008X   26040.50002314 -.00072737  00000+0 -12438-2 0  9999
2 67466  42.9998   5.4162 0001660 269.2920 303.8808 15.50617875  5261
STARLINK-36425          
1 67467U 26008Y   26040.50002314 -.00082086  00000+0 -14070-2 0  9992
2 67467  43.0002   5.8036 0001400 264.3709 151.3443 15.50600434  5261
STARLINK-36414          
1 67468U 26008Z   26040.50002314 -.00109051  00000+0 -18769-2 0  9994
2 67468  43.0002   5.2259 0001124 278.3524  10.2945 15.50610864  5264
STARLINK-36441          
1 67469U 26008AA  26040.50002314 -.00010875  00000+0 -17989-3 0  9994
2 67469  43.0000   5.3693 0001554 270.0818 319.0828 15.50566111  5263
STARLINK-36454          
1 67470U 26008AB  26040.50002314 -.00083588  00000+0 -14331-2 0  9994
2 67470  43.0001   5.2817 0001465 276.2356 348.4159 15.50601304  5266
