CCSDS_OMM_VERS = 2.0
CREATION_DATE  = 
ORIGINATOR     = 

OBJECT_NAME    = STARLINK-36546
OBJECT_ID      = 2026-008Q
CENTER_NAME    = EARTH
REF_FRAME      = TEME
TIME_SYSTEM    = UTC
MEAN_ELEMENT_THEORY = SGP/SGP4

EPOCH          = 2026-02-09T12:00:01.999296
MEAN_MOTION    = 15.50761126
ECCENTRICITY   = .0001048
INCLINATION    = 42.9998
RA_OF_ASC_NODE = 5.3814
ARG_OF_PERICENTER = 271.2051
MEAN_ANOMALY   = 316.3320

EPHEMERIS_TYPE = 0
CLASSIFICATION_TYPE = U
NORAD_CAT_ID   = 67459
ELEMENT_SET_NO = 999
REV_AT_EPOCH   = 526
BSTAR          = -.87391E-2
MEAN_MOTION_DOT = -.485579E-2
MEAN_MOTION_DDOT = 0

CCSDS_OMM_VERS = 2.0
CREATION_DATE  = 
ORIGINATOR     = 

OBJECT_NAME    = STARLINK-36523
OBJECT_ID      = 2026-008R
CENTER_NAME    = EARTH
REF_FRAME      = TEME
TIME_SYSTEM    = UTC
MEAN_ELEMENT_THEORY = SGP/SGP4

EPOCH          = 2026-02-09T12:00:01.999296
MEAN_MOTION    = 15.50629239
ECCENTRICITY   = .0001878
INCLINATION    = 43.0001
RA_OF_ASC_NODE = 5.3458
ARG_OF_PERICENTER = 272.8496
MEAN_ANOMALY   = 328.9542

EPHEMERIS_TYPE = 0
CLASSIFICATION_TYPE = U
NORAD_CAT_ID   = 67460
ELEMENT_SET_NO = 999
REV_AT_EPOCH   = 528
BSTAR          = -.96024E-3
MEAN_MOTION_DOT = -.56373E-3
MEAN_MOTION_DDOT = 0

CCSDS_OMM_VERS = 2.0
CREATION_DATE  = 
ORIGINATOR     = 

OBJECT_NAME    = STARLINK-36522
OBJECT_ID      = 2026-008S
CENTER_NAME    = EARTH
REF_FRAME      = TEME
TIME_SYSTEM    = UTC
MEAN_ELEMENT_THEORY = SGP/SGP4

EPOCH          = 2026-02-09T12:00:01.999296
MEAN_MOTION    = 15.50615494
ECCENTRICITY   = .0001625
INCLINATION    = 43.0005
RA_OF_ASC_NODE = 5.6510
ARG_OF_PERICENTER = 274.7710
MEAN_ANOMALY   = 203.5736

EPHEMERIS_TYPE = 0
CLASSIFICATION_TYPE = U
NORAD_CAT_ID   = 67461
ELEMENT_SET_NO = 999
REV_AT_EPOCH   = 526
BSTAR          = -.20226E-2
MEAN_MOTION_DOT = -.117391E-2
MEAN_MOTION_DDOT = 0

CCSDS_OMM_VERS = 2.0
CREATION_DATE  = 
ORIGINATOR     = 

OBJECT_NAME    = STARLINK-36504
OBJECT_ID      = 2026-008T
CENTER_NAME    = EARTH
REF_FRAME      = TEME
TIME_SYSTEM    = UTC
MEAN_ELEMENT_THEORY = SGP/SGP4

EPOCH          = 2026-02-09T12:00:01.999296
MEAN_MOTION    = 15.50595455
ECCENTRICITY   = .0001119
INCLINATION    = 43.0002
RA_OF_ASC_NODE = 5.1566
ARG_OF_PERICENTER = 274.9285
MEAN_ANOMALY   = 44.1613

EPHEMERIS_TYPE = 0
CLASSIFICATION_TYPE = U
NORAD_CAT_ID   = 67462
ELEMENT_SET_NO = 999
REV_AT_EPOCH   = 528
BSTAR          = -.10678E-2
MEAN_MOTION_DOT = -.62523E-3
MEAN_MOTION_DDOT = 0

CCSDS_OMM_VERS = 2.0
CREATION_DATE  = 
ORIGINATOR     = 

OBJECT_NAME    = STARLINK-36505
OBJECT_ID      = 2026-008U
CENTER_NAME    = EARTH
REF_FRAME      = TEME
TIME_SYSTEM    = UTC
MEAN_ELEMENT_THEORY = SGP/SGP4

EPOCH          = 2026-02-09T12:00:01.999296
MEAN_MOTION    = 15.50603642
ECCENTRICITY   = .0001494
INCLINATION    = 43.0003
RA_OF_ASC_NODE = 5.2538
ARG_OF_PERICENTER = 267.3305
MEAN_ANOMALY   = 12.0845

EPHEMERIS_TYPE = 0
CLASSIFICATION_TYPE = U
NORAD_CAT_ID   = 67463
ELEMENT_SET_NO = 999
REV_AT_EPOCH   = 526
BSTAR          = -.13279E-2
MEAN_MOTION_DOT = -.77542E-3
MEAN_MOTION_DDOT = 0

CCSDS_OMM_VERS = 2.0
CREATION_DATE  = 
ORIGINATOR     = 

OBJECT_NAME    = STARLINK-36421
OBJECT_ID      = 2026-008V
CENTER_NAME    = EARTH
REF_FRAME      = TEME
TIME_SYSTEM    = UTC
MEAN_ELEMENT_THEORY = SGP/SGP4

EPOCH          = 2026-02-09T12:00:01.999296
MEAN_MOTION    = 15.50904933
ECCENTRICITY   = .0001713
INCLINATION    = 43.0003
RA_OF_ASC_NODE = 5.6427
ARG_OF_PERICENTER = 273.5086
MEAN_ANOMALY   = 208.1069

EPHEMERIS_TYPE = 0
CLASSIFICATION_TYPE = U
NORAD_CAT_ID   = 67464
ELEMENT_SET_NO = 999
REV_AT_EPOCH   = 526
BSTAR          = -.94186E-2
MEAN_MOTION_DOT = -.523566E-2
MEAN_MOTION_DDOT = 0

CCSDS_OMM_VERS = 2.0
CREATION_DATE  = 
ORIGINATOR     = 

OBJECT_NAME    = STARLINK-36437
OBJECT_ID      = 2026-008W
CENTER_NAME    = EARTH
REF_FRAME      = TEME
TIME_SYSTEM    = UTC
MEAN_ELEMENT_THEORY = SGP/SGP4

EPOCH          = 2026-02-09T12:00:01.999296
MEAN_MOTION    = 15.50581395
ECCENTRICITY   = .0001159
INCLINATION    = 43.0004
RA_OF_ASC_NODE = 5.2252
ARG_OF_PERICENTER = 286.0650
MEAN_ANOMALY   = 4.7247

EPHEMERIS_TYPE = 0
CLASSIFICATION_TYPE = U
NORAD_CAT_ID   = 67465
ELEMENT_SET_NO = 999
REV_AT_EPOCH   = 526
BSTAR          = .12954E-3
MEAN_MOTION_DOT = .7266E-4
MEAN_MOTION_DDOT = 0

CCSDS_OMM_VERS = 2.0
CREATION_DATE  = 
ORIGINATOR     = 

OBJECT_NAME    = STARLINK-36520
OBJECT_ID      = 2026-008X
CENTER_NAME    = EARTH
REF_FRAME      = TEME
TIME_SYSTEM    = UTC
MEAN_ELEMENT_THEORY = SGP/SGP4

EPOCH          = 2026-02-09T12:00:01.999296
MEAN_MOTION    = 15.50617875
ECCENTRICITY   = .000166
INCLINATION    = 42.9998
RA_OF_ASC_NODE = 5.4162
ARG_OF_PERICENTER = 269.2920
MEAN_ANOMALY   = 303.8808

EPHEMERIS_TYPE = 0
CLASSIFICATION_TYPE = U
NORAD_CAT_ID   = 67466
ELEMENT_SET_NO = 999
REV_AT_EPOCH   = 526
BSTAR          = -.12438E-2
MEAN_MOTION_DOT = -.72737E-3
MEAN_MOTION_DDOT = 0

CCSDS_OMM_VERS = 2.0
CREATION_DATE  = 
ORIGINATOR     = 

OBJECT_NAME    = STARLINK-36425
OBJECT_ID      = 2026-008Y
CENTER_NAME    = EARTH
REF_FRAME      = TEME
TIME_SYSTEM    = UTC
MEAN_ELEMENT_THEORY = SGP/SGP4

EPOCH          = 2026-02-09T12:00:01.999296
MEAN_MOTION    = 15.50600434
ECCENTRICITY   = .00014
INCLINATION    = 43.0002
RA_OF_ASC_NODE = 5.8036
ARG_OF_PERICENTER = 264.3709
MEAN_ANOMALY   = 151.3443

EPHEMERIS_TYPE = 0
CLASSIFICATION_TYPE = U
NORAD_CAT_ID   = 67467
ELEMENT_SET_NO = 999
REV_AT_EPOCH   = 526
BSTAR          = -.1407E-2
MEAN_MOTION_DOT = -.82086E-3
MEAN_MOTION_DDOT = 0

CCSDS_OMM_VERS = 2.0
CREATION_DATE  = 
ORIGINATOR     = 

OBJECT_NAME    = STARLINK-36414
OBJECT_ID      = 2026-008Z
CENTER_NAME    = EARTH
REF_FRAME      = TEME
TIME_SYSTEM    = UTC
MEAN_ELEMENT_THEORY = SGP/SGP4

EPOCH          = 2026-02-09T12:00:01.999296
MEAN_MOTION    = 15.50610864
ECCENTRICITY   = .0001124
INCLINATION    = 43.0002
RA_OF_ASC_NODE = 5.2259
ARG_OF_PERICENTER = 278.3524
MEAN_ANOMALY   = 10.2945

EPHEMERIS_TYPE = 0
CLASSIFICATION_TYPE = U
NORAD_CAT_ID   = 67468
ELEMENT_SET_NO = 999
REV_AT_EPOCH   = 526
BSTAR          = -.18769E-2
MEAN_MOTION_DOT = -.109051E-2
MEAN_MOTION_DDOT = 0

CCSDS_OMM_VERS = 2.0
CREATION_DATE  = 
ORIGINATOR     = 

OBJECT_NAME    = STARLINK-36441
OBJECT_ID      = 2026-008AA
CENTER_NAME    = EARTH
REF_FRAME      = TEME
TIME_SYSTEM    = UTC
MEAN_ELEMENT_THEORY = SGP/SGP4

EPOCH          = 2026-02-09T12:00:01.999296
MEAN_MOTION    = 15.50566111
ECCENTRICITY   = .0001554
INCLINATION    = 43.0000
RA_OF_ASC_NODE = 5.3693
ARG_OF_PERICENTER = 270.0818
MEAN_ANOMALY   = 319.0828

EPHEMERIS_TYPE = 0
CLASSIFICATION_TYPE = U
NORAD_CAT_ID   = 67469
ELEMENT_SET_NO = 999
REV_AT_EPOCH   = 526
BSTAR          = -.17989E-3
MEAN_MOTION_DOT = -.10875E-3
MEAN_MOTION_DDOT = 0

CCSDS_OMM_VERS = 2.0
CREATION_DATE  = 
ORIGINATOR     = 

OBJECT_NAME    = STARLINK-36454
OBJECT_ID      = 2026-008AB
CENTER_NAME    = EARTH
REF_FRAME      = TEME
TIME_SYSTEM    = UTC
MEAN_ELEMENT_THEORY = SGP/SGP4

EPOCH          = 2026-02-09T12:00:01.999296
MEAN_MOTION    = 15.50601304
ECCENTRICITY   = .0001465
INCLINATION    = 43.0001
RA_OF_ASC_NODE = 5.2817
ARG_OF_PERICENTER = 276.2356
MEAN_ANOMALY   = 348.4159

EPHEMERIS_TYPE = 0
CLASSIFICATION_TYPE = U
NORAD_CAT_ID   = 67470
ELEMENT_SET_NO = 999
REV_AT_EPOCH   = 526
BSTAR          = -.14331E-2
MEAN_MOTION_DOT = -.83588E-3
MEAN_MOTION_DDOT = 0

